NORAD_CAT_ID,OBJECT_NAME,OBJECT_TYPE,EPOCH,MEAN_MOTION,ECCENTRICITY,INCLINATION,RA_OF_ASC_NODE,ARG_OF_PERICENTER,MEAN_ANOMALY,BSTAR,MEAN_MOTION_DOT,MEAN_MOTION_DDOT,TLE_LINE0,TLE_LINE1,TLE_LINE2,SEMIMAJOR_AXIS,PERIOD,APOGEE,PERIGEE,DECAYED
55428.0,STARLINK-5064,PAYLOAD,2023-05-16 22:00:00,15.20948944,0.00033,69.9983,156.6126,266.123,44.0537,-0.041495,-0.00848278,0.0,0 STARLINK-5064,1 55428U 23014AP  23136.91667824 -.00848278  00000-0 -41495-1 0  9995,2 55428  69.9983 156.6126 0003300 266.1230  44.0537 15.20948944  1306,6881.114,94.678,505.25,500.708,0.0
55428.0,STARLINK-5064,PAYLOAD,2023-05-17 14:00:01,15.19696793,0.0003336,69.9979,154.8733,274.2799,83.6622,-0.04829,-0.00955097,0.0,0 STARLINK-5064,1 55428U 23014AP  23137.58335648 -.00955097  00000-0 -48290-1 0  9993,2 55428  69.9979 154.8733 0003336 274.2799  83.6622 15.19696793 16753,6884.893,94.756,509.055,504.461,0.0
55428.0,STARLINK-5064,PAYLOAD,2023-05-17 22:00:00,15.18995519,0.0003318,69.998,154.005,267.6138,112.9648,-0.044259,-0.00864231,0.0,0 STARLINK-5064,1 55428U 23014AP  23137.91667824 -.00864231  00000-0 -44259-1 0  9994,2 55428  69.9980 154.0050 0003318 267.6138 112.9648 15.18995519  1308,6887.012,94.799,511.162,506.592,0.0
55428.0,STARLINK-5064,PAYLOAD,2023-05-18 06:00:00,15.1836197,0.0003317,69.9982,153.1374,271.8606,130.6239,-0.048095,-0.0091792,0.0,0 STARLINK-5064,1 55428U 23014AP  23138.25001157 -.00917920  00000-0 -48095-1 0  9999,2 55428  69.9982 153.1374 0003317 271.8606 130.6239 15.18361970 16852,6888.928,94.839,513.078,508.508,0.0
55428.0,STARLINK-5064,PAYLOAD,2023-05-18 14:00:01,15.17741171,0.0003258,69.9977,152.2709,275.2693,148.3198,-0.051202,-0.00956721,0.0,0 STARLINK-5064,1 55428U 23014AP  23138.58334491 -.00956721  00000-0 -51202-1 0  9991,2 55428  69.9977 152.2709 0003258 275.2693 148.3198 15.17741171  1304,6890.806,94.878,514.916,510.426,0.0
55428.0,STARLINK-5064,PAYLOAD,2023-05-18 22:00:00,15.17044655,0.0003229,69.9978,151.4052,268.5601,175.3797,-0.047399,-0.00874128,0.0,0 STARLINK-5064,1 55428U 23014AP  23138.91667824 -.00874128  00000-0 -47399-1 0  9999,2 55428  69.9978 151.4052 0003229 268.5601 175.3797 15.17044655  1307,6892.915,94.921,517.006,512.554,0.0
55428.0,STARLINK-5064,PAYLOAD,2023-05-19 06:00:00,15.16399817,0.0003246,69.998,150.5404,272.6306,190.8718,-0.05041,-0.00909899,0.0,0 STARLINK-5064,1 55428U 23014AP  23139.25001157 -.00909899  00000-0 -50410-1 0  9990,2 55428  69.9980 150.5404 0003246 272.6306 190.8718 15.16399817 17009,6894.869,94.962,518.972,514.496,0.0
55428.0,STARLINK-5064,PAYLOAD,2023-05-19 22:00:01,15.15094024,0.0003111,69.9977,148.8132,267.9322,232.3907,-0.050731,-0.0088413,0.0,0 STARLINK-5064,1 55428U 23014AP  23139.91668981 -.00884130  00000-0 -50731-1 0  9993,2 55428  69.9977 148.8132 0003111 267.9322 232.3907 15.15094024  1308,6898.83,95.044,522.841,518.549,0.0
55428.0,STARLINK-5064,PAYLOAD,2023-05-20 06:00:00,15.14438049,0.0003175,69.998,147.9509,272.7027,244.7763,-0.052759,-0.00901243,0.0,0 STARLINK-5064,1 55428U 23014AP  23140.25001157 -.00901243  00000-0 -52759-1 0  9995,2 55428  69.9980 147.9509 0003175 272.7027 244.7763 15.14438049 17162,6900.822,95.085,524.878,520.496,0.0
55428.0,STARLINK-5064,PAYLOAD,2023-05-20 22:00:01,15.13141633,0.0003084,69.9979,146.229,269.1143,280.4888,-0.053972,-0.0088972,0.0,0 STARLINK-5064,1 55428U 23014AP  23140.91668981 -.00889720  00000-0 -53972-1 0  9995,2 55428  69.9979 146.2290 0003084 269.1143 280.4888 15.13141633  1300,6904.763,95.166,528.758,524.499,0.0
55428.0,STARLINK-5064,PAYLOAD,2023-05-21 06:00:00,15.12475212,0.0003139,69.9982,145.3694,272.5169,291.8996,-0.055086,-0.0089117,0.0,0 STARLINK-5064,1 55428U 23014AP  23141.25001157 -.00891170  00000-0 -55086-1 0  9999,2 55428  69.9982 145.3694 0003139 272.5169 291.8996 15.12475212 17315,6906.791,95.208,530.824,526.488,0.0
55428.0,STARLINK-5064,PAYLOAD,2023-05-21 14:00:01,15.11879432,0.0003069,69.9979,144.5106,273.9317,304.542,-0.06181,-0.00976317,0.0,0 STARLINK-5064,1 55428U 23014AP  23141.58334491 -.00976317  00000-0 -61810-1 0  9994,2 55428  69.9979 144.5106 0003069 273.9317 304.5420 15.11879432  1309,6908.606,95.246,532.591,528.35,0.0
55428.0,STARLINK-5064,PAYLOAD,2023-05-21 22:00:00,15.11189653,0.0003097,69.9982,143.6527,267.3855,324.393,-0.057551,-0.00897738,0.0,0 STARLINK-5064,1 55428U 23014AP  23141.91667824 -.00897738  00000-0 -57551-1 0  9996,2 55428  69.9982 143.6527 0003097 267.3855 324.3930 15.11189653 17419,6910.708,95.289,534.713,530.433,0.0
55428.0,STARLINK-5064,PAYLOAD,2023-05-22 00:00:00,15.11062372,0.0003243,69.9985,143.4384,267.3739,57.5959,-0.061993,-0.0095865,0.0,0 STARLINK-5064,1 55428U 23014AP  23142.00001157 -.00958650  00000-0 -61993-1 0  9994,2 55428  69.9985 143.4384 0003243 267.3739  57.5959 15.11062372  1300,6911.096,95.297,535.202,530.72,0.0
55428.0,STARLINK-5064,PAYLOAD,2023-05-22 09:42:22,15.11921817,0.0003238,69.9976,142.4051,263.4382,96.6416,-0.01668,-0.00275843,0.0,0 STARLINK-5064,1 55428U 23014AP  23142.40442776 -.00275843  00000-0 -16680-1 0  9993,2 55428  69.9976 142.4051 0003238 263.4382  96.6416 15.11921817 18426,6908.477,95.243,532.578,528.105,0.0
55428.0,STARLINK-5064,PAYLOAD,2023-05-22 14:00:01,15.09923641,0.0003125,69.9983,141.9395,272.7576,343.2648,-0.06547,-0.00979218,0.0,0 STARLINK-5064,1 55428U 23014AP  23142.58334491 -.00979218  00000-0 -65470-1 0  9994,2 55428  69.9983 141.9395 0003125 272.7576 343.2648 15.09923641 17513,6914.57,95.369,538.596,534.274,0.0
55428.0,STARLINK-5064,PAYLOAD,2023-05-22 22:00:00,15.09236465,0.0003162,69.9986,141.0843,266.7017,0.2774,-0.061135,-0.00903092,0.0,0 STARLINK-5064,1 55428U 23014AP  23142.91667824 -.00903092  00000-0 -61135-1 0  9991,2 55428  69.9986 141.0843 0003162 266.7017   0.2774 15.09236465 17565,6916.669,95.412,540.721,536.347,0.0
55428.0,STARLINK-5064,PAYLOAD,2023-05-23 14:00:01,15.07966171,0.000318,69.9987,139.3763,272.5432,13.9856,-0.069156,-0.009801,0.0,0 STARLINK-5064,1 55428U 23014AP  23143.58334491 -.00980100  00000-0 -69156-1 0  9992,2 55428  69.9987 139.3763 0003180 272.5432  13.9856 15.07966171 17668,6920.553,95.493,544.618,540.217,0.0
55428.0,STARLINK-5064,PAYLOAD,2023-05-23 22:00:00,15.07282879,0.0003211,69.999,138.5236,266.8674,28.271,-0.064882,-0.00908147,0.0,0 STARLINK-5064,1 55428U 23014AP  23143.91667824 -.00908147  00000-0 -64882-1 0  9990,2 55428  69.9990 138.5236 0003211 266.8674  28.2710 15.07282879 17717,6922.644,95.536,546.732,542.286,0.0
55428.0,STARLINK-5064,PAYLOAD,2023-05-24 14:00:01,15.06008792,0.0003208,69.999,136.8208,272.7634,37.2953,-0.072945,-0.00991831,0.0,0 STARLINK-5064,1 55428U 23014AP  23144.58335648 -.00991831  00000-0 -72945-1 0  9991,2 55428  69.9990 136.8208 0003208 272.7634  37.2953 15.06008792 17814,6926.548,95.617,550.635,546.191,0.0
55428.0,STARLINK-5064,PAYLOAD,2023-05-24 22:00:00,15.05329558,0.0003241,69.9994,135.9709,267.4025,48.8543,-0.068866,-0.00913778,0.0,0 STARLINK-5064,1 55428U 23014AP  23144.91667824 -.00913778  00000-0 -68866-1 0  9993,2 55428  69.9994 135.9709 0003241 267.4025  48.8543 15.05329558 17869,6928.631,95.66,552.742,548.251,0.0
55428.0,STARLINK-5064,PAYLOAD,2023-05-25 14:00:01,15.0405037,0.0003239,69.9992,134.2733,273.233,53.1902,-0.076669,-0.00989153,0.0,0 STARLINK-5064,1 55428U 23014AP  23145.58334491 -.00989153  00000-0 -76669-1 0  9998,2 55428  69.9992 134.2733 0003239 273.2330  53.1902 15.04050370 17968,6932.559,95.741,556.67,552.179,0.0
55428.0,STARLINK-5064,PAYLOAD,2023-05-25 22:00:00,15.03375058,0.0003261,69.9995,133.426,268.1057,62.2295,-0.072914,-0.00917755,0.0,0 STARLINK-5064,1 55428U 23014AP  23145.91667824 -.00917755  00000-0 -72914-1 0  9992,2 55428  69.9995 133.4260 0003261 268.1057  62.2295 15.03375058 18016,6934.635,95.784,558.761,554.239,0.0
55428.0,STARLINK-5064,PAYLOAD,2023-05-26 00:00:02,15.03240092,0.0003235,69.9996,133.2142,270.3046,150.9417,-0.077837,-0.00983149,0.0,0 STARLINK-5064,1 55428U 23014AP  23146.00002315 -.00983149  00000-0 -77837-1 0  9990,2 55428  69.9996 133.2142 0003235 270.3046 150.9417 15.03240092  1302,6935.05,95.793,559.159,554.672,0.0
55428.0,STARLINK-5064,PAYLOAD,2023-05-26 14:00:01,15.02089366,0.0003234,69.9992,131.7336,273.6201,62.1899,-0.080286,-0.00983504,0.0,0 STARLINK-5064,1 55428U 23014AP  23146.58334491 -.00983504  00000-0 -80286-1 0  9993,2 55428  69.9992 131.7336 0003234 273.6201  62.1899 15.02089366  1306,6938.592,95.866,562.701,558.213,0.0
55428.0,STARLINK-5064,PAYLOAD,2023-05-26 22:00:01,15.01419643,0.0003267,69.9994,130.8888,268.7304,68.7055,-0.077037,-0.00920362,0.0,0 STARLINK-5064,1 55428U 23014AP  23146.91668981 -.00920362  00000-0 -77037-1 0  9997,2 55428  69.9994 130.8888 0003267 268.7304  68.7055 15.01419643 18167,6940.655,95.909,564.787,560.252,0.0
55428.0,STARLINK-5064,PAYLOAD,2023-05-27 22:00:00,14.9932743,0.0002961,69.9993,128.3591,269.6994,67.6858,-0.00211,-0.00025835,0.0,0 STARLINK-5064,1 55428U 23014AP  23147.91667824 -.00025835  00000-0 -21100-2 0  9995,2 55428  69.9993 128.3591 0002961 269.6994  67.6858 14.99327430 18318,6947.11,96.043,571.032,566.918,0.0
55428.0,STARLINK-5064,PAYLOAD,2023-05-28 06:00:00,14.99290855,0.0002973,69.9993,127.517,276.1829,59.8761,0.00032973,3.942e-05,0.0,0 STARLINK-5064,1 55428U 23014AP  23148.25001157  .00003942  00000-0  32973-3 0  9998,2 55428  69.9993 127.5170 0002973 276.1829  59.8761 14.99290855  1302,6947.223,96.045,571.154,567.023,0.0
55428.0,STARLINK-5064,PAYLOAD,2023-05-28 22:00:00,14.99286598,0.0002919,69.9994,125.8336,270.5751,62.744,0.0023254,0.00028465,0.0,0 STARLINK-5064,1 55428U 23014AP  23148.91667824  .00028465  00000-0  23254-2 0  9998,2 55428  69.9994 125.8336 0002919 270.5751  62.7440 14.99286598  1306,6947.236,96.046,571.129,567.073,0.0
55428.0,STARLINK-5064,PAYLOAD,2023-05-29 06:00:00,14.99292002,0.0002959,69.9994,124.9917,276.4194,55.5518,0.00084182,0.00010219,0.0,0 STARLINK-5064,1 55428U 23014AP  23149.25001157  .00010219  00000-0  84182-3 0  9993,2 55428  69.9994 124.9917 0002959 276.4194  55.5518 14.99292002 18515,6947.22,96.045,571.14,567.029,0.0
